ATLAS CENTAUR 2         
1 00694U 63047A   26278.94772895  .00002525  00000+0  29655-3 0  9998
2 00694  30.3521  99.8751 0544662 134.4862 230.1602 14.12773322161373
THOR AGENA D R/B        
1 00733U 64002A   26279.30100012  .00000095  00000+0  50953-4 0  9997
2 00733  99.1114 304.0097 0032869   7.0390 353.1248 14.34099798268488
SL-3 R/B                
1 00877U 64053B   26278.84495387  .00000103  00000+0  44313-4 0  9995
2 00877  65.0760  75.0420 0075319 225.7850 133.7050 14.61470242297503
SL-8 R/B                
1 02802U 67045B   26279.28745386  .00000094  00000+0  33836-4 0  9992
2 02802  74.0109 314.7444 0065511 271.4188  87.9466 14.45725404119457
SL-8 R/B                
1 03230U 68040B   26279.19681587  .00002232  00000+0  16247-3 0  9998
2 03230  74.0284 243.1682 0023916   2.3707 357.7591 15.04279109121651
OAO 2                   
1 03597U 68110A   26279.05079365  .00000110  00000+0  34730-4 0  9993
2 03597  34.9923 170.6387 0004781  85.4332 274.6904 14.47385834 49599
ISIS 1                  
1 03669U 69009A   26279.00603788  .00000090  00000+0  54268-4 0  9993
2 03669  88.4344 132.2218 1707658  24.5639 342.7851 11.30452639372296
SERT 2                  
1 04327U 70009A   26279.30854648 -.00000002  00000+0  53266-4 0  9994
2 04327  99.2898 211.0737 0004933 358.9246 115.2845 13.58747379808499
SL-3 R/B                
1 05118U 71028B   26279.25722010  .00089922  00000+0  41934-3 0  9991
2 05118  81.2265 148.1016 0006920 233.5090 126.5538 15.82994485 21739
ASTEX 1                 
1 05560U 71089A   26279.24857511  .00000285  00000+0  72312-4 0  9993
2 05560  92.7141 219.6865 0017870  92.4737 267.8515 14.50922724892834
SL-8 R/B                
1 05730U 71119B   26279.03393201  .00007919  00000+0  40614-3 0  9994
2 05730  73.8852 141.5424 0537171  64.6339 300.9429 14.40637798685753
OAO 3 (COPERNICUS)      
1 06153U 72065A   26279.10235567  .00000163  00000+0  37601-4 0  9990
2 06153  35.0048 178.3877 0005858  82.5284  71.8994 14.60110706876963
ATLAS CENTAUR R/B       
1 06155U 72065B   26279.06313222  .00000597  00000+0  83827-4 0  9994
2 06155  35.0003 152.4461 0033631 340.1509  19.7883 14.78070189872403
SL-8 R/B                
1 08459U 75112B   26279.26117351  .00000110  00000+0  44872-4 0  9994
2 08459  74.0631 351.5261 0015159  25.3603 334.8291 14.38285054662141
SL-3 R/B                
1 10114U 77057B   26279.27054956  .00010089  00000+0  18219-3 0  9998
2 10114  97.5866 101.4145 0005253 232.8095 127.2677 15.49928182700907
SEASAT 1                
1 10967U 78064A   26278.76823691  .00000142  00000+0  77887-4 0  9992
2 10967 108.0085 206.3929 0002554 290.7567  69.3305 14.46298501536886
SL-14 R/B               
1 11267U 79011B   26279.23244487  .00000370  00000+0  33812-4 0  9995
2 11267  82.5212 256.7636 0017540  75.4842 284.8322 14.92090712560174
SL-8 R/B                
1 11574U 79089B   26279.10494070  .00000206  00000+0  70242-4 0  9998
2 11574  74.0685  61.5193 0015683 183.5583 176.5464 14.42442012466442
SL-14 R/B               
1 11672U 80005B   26279.25008416  .00000347  00000+0  32430-4 0  9991
2 11672  82.5109 107.4879 0015690 175.5071 184.6292 14.91106453507869
SL-8 R/B                
1 12139U 81003B   26279.23252428  .00024070  00000+0  55236-3 0  9998
2 12139  82.9321  94.2976 0238741 161.8544 199.1402 15.17894472346540
SL-3 R/B                
1 12465U 81046B   26279.24304394  .00010115  00000+0  20363-3 0  9996
2 12465  81.2310  36.0464 0016870   5.9262 354.2179 15.46282157470928
SL-3 R/B                
1 12904U 81103B   26279.24324779  .00002756  00000+0  11592-3 0  9993
2 12904  81.1592 326.0806 0011500 297.4032  62.6030 15.23013639  5277
SL-3 R/B                
1 13068U 82013B   26279.24830601  .00002663  00000+0  11019-3 0  9993
2 13068  81.1707 273.6322 0021606 184.4888 175.6155 15.23388910436390
SL-3 R/B                
1 13154U 82039B   26279.23689296  .00002202  00000+0  12916-3 0  9994
2 13154  81.1490 332.7763 0030440 347.4357  12.6106 15.10971071413426
SL-3 R/B                
1 13403U 82079B   26279.30928877  .00003260  00000+0  12253-3 0  9993
2 13403  81.1445 303.9607 0024000 168.4573 191.7217 15.26598824409814
SL-14 R/B               
1 13553U 82092B   26279.16690587  .00000261  00000+0  26509-4 0  9990
2 13553  82.5658 304.4592 0019347 326.6220  97.8254 14.86811010360201
SL-3 R/B                
1 13819U 83010B   26279.25083697  .00012757  00000+0  21184-3 0  9990
2 13819  81.0978 102.9069 0014617  29.2288 330.9775 15.51829690390545
SL-3 R/B                
1 14208U 83075B   26279.27046641  .00008130  00000+0  18947-3 0  9997
2 14208  97.6116 292.4815 0019450 188.1664 171.9269 15.42342387362578
COSMOS 1536             
1 14699U 84013A   26279.20611328  .00005137  00000+0  19766-3 0  9991
2 14699  82.5409 258.1767 0011666 259.7013 100.2910 15.26093370304705
SL-14 R/B               
1 14820U 84027B   26279.24582387  .00000279  00000+0  28977-4 0  9995
2 14820  82.5422  47.5401 0017869   1.1460 358.9794 14.86120917278904
SL-8 R/B                
1 15483U 85006B   26279.27625649  .00000177  00000+0  67144-4 0  9997
2 15483  74.0446 233.6251 0017058  96.8615   7.8642 14.37871952184294
SL-12 R/B(2)            
1 15772U 85042D   26279.30517852 -.00000002  00000+0  20311-4 0  9991
2 15772  71.1108   2.7467 0034273 161.3588 256.2905 14.22024386144335
SL-14 R/B               
1 15945U 85069B   26279.23324632  .00000256  00000+0  26043-4 0  9994
2 15945  82.5298 186.9297 0017830 210.8708 149.1462 14.86580326204115
SL-16 R/B               
1 16182U 85097B   26279.14995532 -.00000094  00000+0 -22962-4 0  9990
2 16182  71.0032  57.4628 0009724 290.2578 242.1471 14.16623805117039
SL-14 R/B               
1 16496U 86006B   26278.88105030  .00000364  00000+0  35960-4 0  9995
2 16496  82.5256  61.9212 0074837 296.1978  63.1557 14.87024365180442
COSMOS 1743             
1 16719U 86034A   26279.25200407  .00087411  00000+0  48513-3 0  9995
2 16719  82.5248 209.6346 0004068 129.0607 231.1023 15.79234276213248
SL-14 R/B               
1 16792U 86046B   26279.27992979  .00000291  00000+0  30619-4 0  9993
2 16792  82.4805 241.1944 0021533 250.7245 109.1642 14.85734309157671
SL-14 R/B               
1 16882U 86055B   26279.32635611  .00000271  00000+0  28295-4 0  9991
2 16882  82.5172 288.6441 0018767   0.1073  10.5897 14.85785103150643
AJISAI (EGS)            
1 16908U 86061A   26279.21459065 -.00000093  00000+0  30914-4 0  9996
2 16908  50.0083 165.9888 0011416 102.4376  33.1046 12.44517520494211
SL-14 R/B               
1 17567U 87024B   26279.03483477  .00000282  00000+0  29230-4 0  9990
2 17567  82.5255 255.0559 0016643 285.5801  74.3578 14.86275804119375
COSMOS 1833             
1 17589U 87027A   26279.24754076 -.00000177  00000+0 -68691-4 0  9995
2 17589  70.9144 243.4277 0026125 248.1897 111.6445 14.13039655 40060
SL-16 R/B               
1 17590U 87027B   26279.17393725 -.00000011  00000+0  18196-4 0  9990
2 17590  71.0031 192.9445 0004794 187.0958 173.0099 14.17184832 45166
SL-14 R/B               
1 17912U 87038B   26279.20567903  .00000285  00000+0  30104-4 0  9990
2 17912  82.4976  98.4953 0019027 184.2746 175.8311 14.85505074110486
COSMOS 1844             
1 17973U 87041A   26279.33924724  .00000445  00000+0  25580-3 0  9992
2 17973  70.8988 309.8498 0028857  64.4237 295.9862 14.14586364 33375
SL-14 R/B               
1 18153U 87055B   26279.14545398  .00000239  00000+0  24598-4 0  9993
2 18153  82.4999 150.6415 0021600  40.7574 319.5253 14.85768900101186
COSMOS 1867             
1 18187U 87060A   26279.14184715 -.00000042  00000+0  21753-4 0  9991
2 18187  65.0096  77.3188 0018908 280.2172  79.6780 14.31525501 50060
SL-14 R/B               
1 18749U 88001B   26279.28965094  .00000245  00000+0  25444-4 0  9998
2 18749  82.5164 357.2325 0016497 261.0145  98.9204 14.85669706 73295
COSMOS 1933             
1 18958U 88020A   26279.29794675  .00003298  00000+0  15477-3 0  9992
2 18958  82.5135  42.3271 0004177 166.6742 193.4603 15.19313273 82198
SL-3 R/B                
1 19046U 88032B   26279.27729329  .00003081  00000+0  13877-3 0  9998
2 19046  97.5387 262.3439 0023931 215.5968 144.3673 15.21590185 84113
SL-16 R/B               
1 19120U 88039B   26279.23917859 -.00000057  00000+0 -43309-5 0  9998
2 19120  71.0167 343.3366 0021353  10.6898 349.4677 14.19638756988264
COSMOS 1953             
1 19210U 88050A   26279.15383454  .00006172  00000+0  20277-3 0  9999
2 19210  82.5059 306.0236 0012264  99.3564 260.9064 15.31282821 69965
SL-8 R/B                
1 19257U 88053B   26279.19192567  .00000238  00000+0  85469-4 0  9992
2 19257  74.0454  84.4302 0020636 215.1494 317.3469 14.39003953  6763
COSMOS 1975             
1 19573U 88093A   26279.27477159  .00005982  00000+0  20118-3 0  9999
2 19573  82.5154 265.8538 0012383 138.2386 221.9802 15.30524154 51591
SL-14 R/B               
1 19574U 88093B   26279.26984933  .00000281  00000+0  29320-4 0  9994
2 19574  82.5335 204.3520 0022071  63.0821  50.2349 14.85800708 32281
SL-16 R/B               
1 19650U 88102B   26279.11268801  .00000083  00000+0  65800-4 0  9996
2 19650  70.9984  68.7345 0012647  43.6060 316.6061 14.16173322956689
INTERCOSMOS 24          
1 20261U 89080A   26279.20882532  .00000361  00000+0  99203-4 0  9998
2 20261  82.6069 327.3833 1187575 164.1324 200.0644 12.59749813693304
SL-14 R/B               
1 20262U 89080C   26279.29106029  .00000126  00000+0  28640-4 0  9994
2 20262  82.5959  37.9190 1230421  63.3613 308.8147 12.50611266686478
DELTA 1 R/B             
1 20323U 89089B   26279.05590401  .00000272  00000+0  75814-4 0  9993
2 20323  97.0666  92.9053 0069018 176.2758 183.8969 14.50785785926230
ARIANE 40 R/B           
1 20443U 90005H   26279.15472569  .00000111  00000+0  48643-4 0  9993
2 20443  98.2834 333.2513 0008934 293.7173  66.3078 14.39969590923093
DELTA 2 R/B(1)          
1 20453U 90008B   26279.12864847  .01308034  12065-2  95091-3 0  9999
2 20453  35.5863 197.7613 0008535 143.9470 216.1861 16.14894042959297
COSMOS 2058             
1 20465U 90010A   26279.23020029  .00002313  00000+0  13095-3 0  9990
2 20465  82.4698 199.8016 0009040 338.9113  21.1744 15.12542753974050
SL-14 R/B               
1 20466U 90010B   26278.90728759  .00000264  00000+0  29038-4 0  9997
2 20466  82.5001  69.9426 0018961 330.8660  29.1496 14.83701159959657
SL-14 R/B               
1 20511U 90018B   26279.26257544  .00000259  00000+0  29321-4 0  9994
2 20511  82.5242  26.2580 0017400 117.1274 243.1718 14.82274176953771
HST                     
1 20580U 90037B   26278.73956833  .00005417  00000+0  16380-3 0  9990
2 20580  28.4731  44.3425 0001381 312.8240  47.2240 15.31835008805531
SL-16 R/B               
1 20625U 90046B   26279.28646145  .00000256  00000+0  15635-3 0  9991
2 20625  70.9993 215.6085 0014992 336.2560  23.7869 14.15037442878189
COSMOS 2084             
1 20663U 90055A   26279.25692755  .00001158  00000+0  91636-4 0  9996
2 20663  62.7899 336.8771 0020653 353.5792   6.5041 15.06491583968039
SL-6 R/B(2)             
1 20666U 90055D   26279.26958025  .00001534  00000+0  12039-3 0  9992
2 20666  62.7804 257.2618 0057861  19.1288 341.1965 15.04333798969866
SL-8 R/B                
1 20775U 90078B   26278.90252117  .00010455  00000+0  28505-3 0  9994
2 20775  82.8994  61.3063 0338844  23.0130 338.5866 14.95394846840656
SL-8 R/B                
1 21088U 91006B   26279.26784613  .00000051  00000+0  35476-4 0  9992
2 21088  82.9467  13.3780 0022958 162.0767 256.8982 13.77525065793060
OKEAN-3                 
1 21397U 91039A   26278.99926910  .00001685  00000+0  11436-3 0  9991
2 21397  82.5143 132.9056 0013839 340.3475  19.7217 15.05727402896679
COSMOS 2151             
1 21422U 91042A   26279.28725171  .00001092  00000+0  84014-4 0  9998
2 21422  82.4952 240.4378 0013905  69.8251 290.4467 15.00682010894770
SL-14 R/B               
1 21423U 91042B   26279.29275336  .00000236  00000+0  26830-4 0  9994
2 21423  82.4961  22.6777 0015473 268.8364  91.1077 14.81955308884269
ERS-1                   
1 21574U 91050A   26279.30506466  .00000194  00000+0  76668-4 0  9990
2 21574  98.7757 302.7012 0030911 298.1732  61.6334 14.39574154846032
ARIANE 40 R/B           
1 21610U 91050F   26279.13382277  .00000169  00000+0  62987-4 0  9995
2 21610  98.1758 323.1665 0003879 139.1558 220.9924 14.43009062849340
INTERCOSMOS 25          
1 21819U 91086A   26279.20229490  .00001657  00000+0  31949-3 0  9996
2 21819  82.6075 182.6696 1485353  22.9492 343.1451 12.12394236522199
SL-8 R/B                
1 21876U 92008B   26279.33153235 -.00000028  00000+0 -43643-4 0  9999
2 21876  82.9230 111.1537 0033441 266.3015 267.5170 13.75991952738385
SL-8 R/B                
1 21938U 92020B   26279.27254589  .00000032  00000+0  16871-4 0  9995
2 21938  82.9347 357.3389 0030304  71.1512 352.9868 13.75561632730081
USA 81                  
1 21949U 92023A   26279.20562706  .00000108  00000+0  32640-4 0  9992
2 21949  85.0124   9.9226 0002723  89.8275 270.3230 14.32421754124926
COSMOS 2219             
1 22219U 92076A   26279.31869472  .00000090  00000+0  72152-4 0  9995
2 22219  71.0583 297.7494 0020031 241.1795 118.7317 14.14107177748155
SL-16 R/B               
1 22220U 92076B   26279.03129737  .00000100  00000+0  73839-4 0  9994
2 22220  70.9975 105.2832 0011304 142.0427  21.6557 14.16882207751623
COSMOS 2221             
1 22236U 92080A   26278.92087436  .00001170  00000+0  99850-4 0  9991
2 22236  82.5009  77.6392 0013627 200.0600 160.0088 14.96784585812238
SL-16 R/B               
1 22285U 92093B   26279.26370083  .00000361  00000+0  20913-3 0  9994
2 22285  71.0199 282.2027 0005296 321.9366  38.1382 14.15473639742958
COSMOS 2228             
1 22286U 92094A   26279.25782927  .00001261  00000+0  10467-3 0  9992
2 22286  82.5197  35.6045 0016577 315.7847  44.2050 14.97877760807576
SL-16 R/B               
1 22566U 93016B   26278.97286759 -.00000029  00000+0  98227-5 0  9992
2 22566  71.0064 133.5222 0010573 350.2350   9.8565 14.15323989731923
COSMOS 2242             
1 22626U 93024A   26278.86766720  .00001094  00000+0  92249-4 0  9996
2 22626  82.5170  65.6105 0015128 321.8959  38.1193 14.97170462811837
SL-16 R/B               
1 22803U 93059B   26279.30058701 -.00000107  00000+0 -28875-4 0  9994
2 22803  70.9886 286.9776 0019394 251.9603 107.9408 14.17258291709377
ARIANE 40 R/B           
1 22830U 93061H   26279.16103867  .00000069  00000+0  40808-4 0  9990
2 22830  98.4704 343.6487 0011077  26.9527 333.2231 14.32942465724247
COSMOS 2278             
1 23087U 94023A   26279.21051442 -.00000223  00000+0 -91908-4 0  9992
2 23087  71.0517  94.6344 0006757  56.6433 303.5336 14.14410935674579
SL-16 R/B               
1 23088U 94023B   26279.23352106  .00000306  00000+0  18274-3 0  9990
2 23088  71.0021 348.7209 0004602 311.4672  48.6055 14.15032701675878
SL-16 R/B               
1 23343U 94074B   26279.05355742  .00000228  00000+0  36970-4 0  9996
2 23343  97.6939 301.1291 0005169 252.0376 133.4070 14.79577027718354
SL-16 R/B               
1 23405U 94077B   26279.27442851 -.00000147  00000+0 -50441-4 0  9991
2 23405  70.9794 269.4469 0004203 237.1759 122.8960 14.15584401646035
ARIANE 40+ R/B          
1 23561U 95021B   26279.23584389  .00000174  00000+0  69108-4 0  9991
2 23561  98.4306 347.6475 0005959 223.0159 173.0095 14.39880930649543
SL-16 R/B               
1 23705U 95058B   26278.93818845 -.00000223  00000+0 -89600-4 0  9990
2 23705  71.0193  98.8322 0011798 169.6203 190.5166 14.15519189597604
SL-16 R/B               
1 24298U 96051B   26279.21661211  .00000065  00000+0  61827-4 0  9990
2 24298  70.7666  89.7032 0017799 194.7973 165.2628 14.12486722551379
ORBVIEW 2 (SEASTAR)     
1 24883U 97037A   26279.04895586  .00000146  00000+0  67095-4 0  9993
2 24883  98.8792  89.2225 0002723 140.5338 219.6046 14.35597987538659
SL-16 R/B               
1 25400U 98043G   26279.14884303  .00000028  00000+0  30712-4 0  9998
2 25400  98.8509 234.3295 0010704 121.1428 239.0803 14.26083484468981
SL-16 R/B               
1 25407U 98045B   26279.19907517  .00000016  00000+0  32152-4 0  9992
2 25407  71.0085  98.8679 0005569  54.1030 306.0610 14.16211881456909
ISS (ZARYA)             
1 25544U 98067A   26279.01444283  .00005131  00000+0  10208-3 0  9995
2 25544  51.6314 111.6262 0006858 227.8987 132.1419 15.48747543588933
CZ-4B R/B               
1 25732U 99025C   26279.10899575  .00000006  00000+0  23461-4 0  9999
2 25732  98.6375 318.0982 0038187  99.2294 323.1800 14.18297539417998
OKEAN-O                 
1 25860U 99039A   26279.18678611  .00000328  00000+0  49571-4 0  9997
2 25860  97.9187 336.6399 0001586  72.2730 287.8655 14.80568752465534
SL-16 R/B               
1 25861U 99039B   26279.17341076  .00000254  00000+0  38806-4 0  9996
2 25861  97.9709 337.6473 0013485 296.4587  63.5242 14.81932383468035
DELTA 2 R/B             
1 25876U 99041E   26279.07581373  .00000004  00000+0  38663-4 0  9994
2 25876  51.7644 180.6502 0499819 249.4593 105.2040 14.12264959392756
HELIOS 1B               
1 25977U 99064A   26279.25809595  .00000863  00000+0  99846-4 0  9993
2 25977  98.1510 187.5589 0002461  89.7265 270.4233 14.88237842716573
TERRA                   
1 25994U 99068A   26279.29978334  .00000220  00000+0  53719-4 0  9994
2 25994  97.9333 324.3740 0001348 204.7527 222.4948 14.61170513425833
SL-16 R/B               
1 26070U 00006B   26278.70369695 -.00000257  00000+0 -10595-3 0  9999
2 26070  71.0051  16.2418 0018214 227.6770 132.2811 14.15846939378286
TITAN 4B R/B            
1 26474U 00047B   26279.24179809  .00001600  00000+0  10302-3 0  9995
2 26474  67.9872 167.8523 0039894 171.4994 188.6841 15.10683623424702
ENVISAT                 
1 27386U 02009A   26279.13862184  .00000050  00000+0  30081-4 0  9996
2 27386  98.3963 228.0417 0001289  89.4466 281.1638 14.39085796289445
IDEFIX & ARIANE 42P R/B 
1 27422U 02021B   26279.08638393  .00000124  00000+0  63580-4 0  9990
2 27422  98.6011 215.3935 0010784 291.3753  68.6279 14.31123531274119
AQUA                    
1 27424U 02022A   26279.26528718  .00000517  00000+0  11240-3 0  9993
2 27424  98.4431 250.8501 0001057  63.3880  49.5287 14.62223984299503
CZ-4B R/B               
1 27432U 02024C   26279.14888361  .00000000  00000+0  22463-4 0  9991
2 27432  98.8573 331.1814 0050789 144.1107 278.8159 14.14577380258991
MIDORI II (ADEOS-II)    
1 27597U 02056A   26278.87865946  .00000154  00000+0  78386-4 0  9996
2 27597  98.8029 239.1524 0002085  93.2892 266.8528 14.29396555240329
H-2A R/B                
1 27601U 02056E   26278.89571616  .00000171  00000+0  74603-4 0  9999
2 27601  98.3455 231.6022 0068876 255.3582 161.2301 14.33870806244232
CZ-4B R/B               
1 28059U 03049C   26279.28246385  .00000221  00000+0  62296-4 0  9997
2 28059  98.6964 282.5919 0047196 310.0012  49.7045 14.55162749217225
SL-16 R/B               
1 28353U 04021B   26279.03721510  .00000272  00000+0  16631-3 0  9993
2 28353  71.0001 151.0545 0003035  72.0666 288.0787 14.14623663152588
CZ-4B R/B               
1 28415U 04035C   26279.08850438  .00006255  00000+0  20264-3 0  9998
2 28415  97.3290 310.9684 0028202 301.4445  58.4041 15.31987654212093
CZ-2C R/B               
1 28480U 04046B   26279.25424585  .00000043  00000+0  31674-4 0  9998
2 28480  98.1825 181.0229 0138079 251.9535 106.6562 14.27056389138539
ARIANE 5 R/B            
1 28499U 04049H   26279.20292012  .00000391  00000+0  49534-4 0  9994
2 28499  98.2792  95.8236 0084299  29.6040 330.9907 14.85578077177049
CZ-2D R/B               
1 28738U 05024B   26279.03883135  .00105889  00000+0  44744-3 0  9992
2 28738  97.3382 305.1426 0000881  90.0656 270.0715 15.85119936172804
ALOS (DAICHI)           
1 28931U 06002A   26279.30212700  .00000863  00000+0  15137-3 0  9998
2 28931  98.1463 234.6072 0001525  53.6684 306.4663 14.70254755104424
H-2A R/B                
1 28932U 06002B   26279.20083681  .00006512  00000+0  30240-3 0  9991
2 28932  98.2678  85.2917 0048276 243.1385 116.4908 15.19372747126375
RESURS-DK 1             
1 29228U 06021A   26278.81079962  .00001215  00000+0  73610-4 0  9998
2 29228  69.9324  53.1082 0003307 190.4613 169.6486 15.13571798119316
CZ-4B R/B               
1 29507U 06046C   26279.11482281  .00002915  00000+0  14310-3 0  9990
2 29507  97.5339 323.3629 0030515 256.1057 103.6781 15.18508839 91968
CZ-2C R/B               
1 31114U 07010B   26279.29792302  .00000034  00000+0  34364-4 0  9998
2 31114  98.4159  22.2466 0059703  42.8699 317.7111 14.20297770  9607
COSMO-SKYMED 1          
1 31598U 07023A   26279.26880609  .00001394  00000+0  12474-3 0  9990
2 31598  97.8802 112.0932 0001002  93.4609 266.6727 14.97505987 46410
COSMOS 2428             
1 31792U 07029A   26279.00801030 -.00000137  00000+0 -47484-4 0  9991
2 31792  70.9411 121.8304 0012195 301.6247  58.3683 14.12976159993803
SL-16 R/B               
1 31793U 07029B   26279.27124876  .00000288  00000+0  17376-3 0  9998
2 31793  70.9730  89.7135 0001903 279.0355 254.9594 14.14861872995157
KORONAS-FOTON           
1 33504U 09003A   26279.28016107  .00012364  00000+0  23584-3 0  9998
2 33504  82.4277  56.1493 0010731 111.3194 248.9203 15.47939426978278
CZ-2C R/B               
1 37731U 11030B   26278.86276189  .00000798  00000+0  10585-3 0  9993
2 37731  97.8794 232.3362 0052853  27.6452 357.6977 14.81654739821213
H-2A R/B                
1 38341U 12025E   26278.92476557  .00001654  00000+0  15053-3 0  9991
2 38341  98.4970 263.3122 0043367 346.5927  13.4136 14.96129119779640
SHIJIAN-16 (SJ-16)      
1 39358U 13057A   26279.29525501  .00000238  00000+0  25816-4 0  9997
2 39358  74.9724 146.2171 0016338 317.2186  42.7730 14.92815469702926
SL-4 R/B                
1 39679U 14021B   26278.67991816  .00014083  00000+0  26939-3 0  9991
2 39679  51.6053  28.5654 0086003 151.4950 209.0779 15.44375920688677
ALOS-2                  
1 39766U 14029A   26279.25994788  .00000728  00000+0  10430-3 0  9992
2 39766  97.9225  14.8317 0001595  93.9336 266.2058 14.79473872668005
YAOGAN-29               
1 41038U 15069A   26279.29492807  .00000215  00000+0  33019-4 0  9991
2 41038  97.9972 308.0690 0002464  55.0288 305.1156 14.83153639587094
ASTRO-H (HITOMI)        
1 41337U 16012A   26278.76875961  .00001576  00000+0  86554-4 0  9992
2 41337  30.9986  79.7678 0009553 287.0611  72.8981 15.10933476584029
HXMT (HUIYAN)           
1 42758U 17034A   26279.27063306  .00003111  00000+0  15453-3 0  9990
2 42758  43.0138 284.1091 0030429 132.0048 228.3398 15.19276294514559
SAOCOM 1A               
1 43641U 18076A   26279.32595944 -.00000212  00000+0 -20105-4 0  9995
2 43641  97.8891 104.4816 0001474  87.3066 272.8316 14.82153792432563
H-2A R/B                
1 43682U 18084L   26279.24018387  .00022277  00000+0  40654-3 0  9994
2 43682  98.8401 182.6773 0020966  12.6102 347.5665 15.49222372438293
SAOCOM 1B               
1 46265U 20059A   26279.28968182  .00000495  00000+0  68744-4 0  9999
2 46265  97.8892 103.5472 0001461  86.8682 273.2698 14.82156822329943
CSS (TIANHE)            
1 48274U 21035A   26279.28461594  .00017833  00000+0  21494-3 0  9995
2 48274  41.4702   7.3027 0001529 339.5824  20.4954 15.60366765310514
COSMOS 2550             
1 48865U 21056A   26279.33340736  .00004491  00000+0  14222-3 0  9991
2 48865  67.1414 123.6898 0008351 269.3209  90.6989 15.33838107295760
CZ-2C R/B               
1 52794U 22058K   26279.33619234  .00050984  00000+0  39847-3 0  9990
2 52794  50.1829 301.6115 0029178  21.1267 339.0908 15.70497937243066
CZ-2C R/B               
1 54039U 22132E   26279.29401702  .00138429  89389-5  48503-3 0  9994
2 54039  97.2855 292.5679 0007974  36.5313 323.6503 15.89222978223481
GSLV R/B                
1 54149U 22138AN  26279.24674215  .00001638  00000+0  13683-3 0  9997
2 54149  87.3723  95.6288 0023553 103.6489 256.7368 14.97639408215435
XRISM                   
1 57800U 23137A   26278.50464668  .00003519  00000+0  18770-3 0  9993
2 57800  31.0036   4.5599 0007499 358.4442   1.6173 15.13240793169588
ACS3                    
1 59588U 24077B   26279.27277721  .00006414  00000+0  44872-2 0  9997
2 59588  97.2392 173.9530 0044381 348.7549  11.2624 13.98158392123547
SPACEMOBILE-003         
1 61045U 24163A   26278.70126747  .00000340  00000+0  30241-4 0  9991
2 61045  52.9741 161.3419 0007574  86.0525 274.1335 15.20392859114588
SPACEMOBILE-005         
1 61046U 24163B   26277.89705974  .00005196  00000+0  24965-3 0  9995
2 61046  52.9757 165.0446 0010728  82.3608 277.8604 15.20429622114457
SPACEMOBILE-001         
1 61047U 24163C   26277.96161371  .00000780  00000+0  50142-4 0  9992
2 61047  52.9707 164.4203 0008774  86.6236 273.5761 15.20427859114467
SPACEMOBILE-002         
1 61048U 24163D   26278.01172427  .00019248  00000+0  88392-3 0  9990
2 61048  52.9698 164.2794 0007888  83.8973 276.2920 15.20407314114474
SPACEMOBILE-004         
1 61049U 24163E   26278.38805632  .00014043  00000+0  64881-3 0  9997
2 61049  52.9733 162.2910 0009271 108.6261 251.5741 15.20426521114532
CZ-8A R/B               
1 66004U 25231K   26279.29127634 -.00000014  00000+0  53219-4 0  9998
2 66004  50.0042 286.6066 0116836 255.5219 103.2710 14.30188705 50845
SZ-21 MODULE            
1 66515U 25246C   26279.15083064  .00079016  00000+0  27541-3 0  9999
2 66515  41.4705 330.7567 0009752 100.9199 259.2748 15.88255104 51315
SPACEMOBILE-006         
1 67232U 25309A   26279.12329737  .00000904  00000+0  57948-4 0  9998
2 67232  52.9945 183.3334 0012211 112.8809 247.3476 15.18969498 43456
SPACEMOBILE-008         
1 69589U 26139A   26279.25678151  .00000728  00000+0  57547-4 0  9997
2 69589  52.9940 118.2280 0002549 323.3146  36.7670 15.13030641 16798
SPACEMOBILE-009         
1 69590U 26139B   26279.00024094  .00000627  00000+0  52022-4 0  9994
2 69590  52.9932 119.4625 0002672 313.8965  46.1805 15.12924838 16757
SPACEMOBILE-010         
1 69591U 26139C   26279.27586224  .00000773  00000+0  60468-4 0  9997
2 69591  52.9938 118.3382 0002668 299.8918  60.1808 15.12785311 16804
